COSMOS 2251 DEB         
1 40224U 93036BVD 17344.32030231  .00000908  00000-0  18307-3 0  9995
2 40224  73.9978 102.3294 0146223  34.6126 355.7361 14.56500516170997
